OBJECT_NAME,OBJECT_ID,EPOCH,MEAN_MOTION,ECCENTRICITY,INCLINATION,RA_OF_ASC_NODE,ARG_OF_PERICENTER,MEAN_ANOMALY,EPHEMERIS_TYPE,CLASSIFICATION_TYPE,NORAD_CAT_ID,ELEMENT_SET_NO,REV_AT_EPOCH,BSTAR,MEAN_MOTION_DOT,MEAN_MOTION_DDOT
STARLINK-31625,2024-068D,2024-07-11T11:49:11.565408,15.40689541,.0001311,42.9993,242.1502,277.4722,82.5985,0,U,59458,999,1553,.60856E-4,.2239E-4,0
STARLINK-31631,2024-068E,2024-07-11T11:26:48.464448,15.40695395,.0001719,43.0006,242.9024,269.4301,90.6359,0,U,59459,999,1552,.83188E-4,.3172E-4,0
STARLINK-31620,2024-068F,2024-07-11T11:01:00.085728,15.40694230,.0001234,42.9977,242.7638,264.3984,95.6732,0,U,59460,999,1552,.57318E-4,.2091E-4,0
STARLINK-31482,2024-068G,2024-07-11T14:00:01.000224,15.90684788,.0002031,42.9843,215.1881,314.1070,104.7457,0,U,59461,999,603,-.99247E-3,-.309525E-2,0
STARLINK-31511,2024-068H,2024-07-11T10:38:24.363456,15.40717025,.0000934,42.9968,242.6447,266.7746,93.3003,0,U,59462,999,1552,-.26581E-3,-.11396E-3,0
STARLINK-31364,2024-068J,2024-07-11T11:17:08.038752,15.40681883,.0001574,43.0007,242.8473,265.0630,95.0047,0,U,59463,999,1552,.99317E-4,.3845E-4,0
STARLINK-31597,2024-068K,2024-07-11T13:16:05.135808,15.40704549,.0001536,43.0004,241.7414,276.0870,83.9811,0,U,59464,999,1549,.71352E-4,.2679E-4,0
STARLINK-31621,2024-068L,2024-07-11T11:52:25.197312,15.40693846,.0001464,43.0011,242.1730,269.8818,90.1871,0,U,59465,999,1553,.25949E-4,.78E-5,0
STARLINK-31462,2024-068M,2024-07-11T08:29:34.590048,15.40695406,.0001378,42.9984,242.8075,268.1598,91.9101,0,U,59466,999,1551,.52248E-4,.1879E-4,0
STARLINK-31592,2024-068N,2024-07-11T12:08:33.299808,15.40688638,.0001308,42.9974,242.2490,264.0334,96.0374,0,U,59467,999,1553,.39168E-4,.1333E-4,0
STARLINK-31267,2024-068P,2024-07-11T10:57:46.605888,15.40694257,.0001402,43.0005,242.7442,255.9275,104.1426,0,U,59468,999,1552,.175E-4,.428E-5,0
STARLINK-31381,2024-068Q,2024-07-11T07:47:49.315776,15.40714146,.0002518,43.0017,243.4714,226.1320,133.9329,0,U,59469,999,1550,.10026E-3,.3888E-4,0
STARLINK-31546,2024-068R,2024-07-11T11:13:54.150240,15.40696240,.0001166,42.9990,242.8289,265.2848,94.7876,0,U,59470,999,1552,.66071E-4,.2457E-4,0
STARLINK-31575,2024-068S,2024-07-11T12:37:34.275360,15.40704501,.0001214,43.0000,242.4047,259.2956,100.7763,0,U,59471,999,1553,.72611E-4,.2731E-4,0
STARLINK-31375,2024-068T,2024-07-11T13:06:24.819840,15.40689391,.0001297,43.0006,241.6885,283.6463,76.4249,0,U,59472,999,1554,.77903E-4,.2951E-4,0
STARLINK-31610,2024-068U,2024-07-11T11:45:57.733920,15.40700294,.0001508,42.9983,242.1304,270.2556,89.8128,0,U,59473,999,1553,.5595E-4,.2034E-4,0
STARLINK-31581,2024-068V,2024-07-11T12:24:40.886496,15.40721529,.000139,43.0008,242.3385,273.1958,86.8740,0,U,59474,999,1553,-.11292E-3,-.5021E-4,0
STARLINK-31566,2024-068W,2024-07-11T11:29:47.452416,15.40743427,.0001709,43.0010,242.0418,292.9014,67.1662,0,U,59475,999,1553,.92751E-4,.3578E-4,0
STARLINK-31515,2024-068X,2024-07-11T11:39:30.870144,15.40693781,.0001362,43.0004,242.0953,273.6950,86.3750,0,U,59476,999,1553,.51609E-4,.1853E-4,0
STARLINK-31531,2024-068Y,2024-07-11T11:20:09.028608,15.40705977,.0001805,42.9998,241.9897,263.9204,96.1447,0,U,59477,999,1553,.87213E-4,.3342E-4,0
DUMMY SAT 3,2024-069A,2024-07-11T09:01:05.635488,0.98606789,.00493,0.2672,86.5152,113.4801,159.7998,0,U,59479,999,84,0,-.95E-6,0
WSF-M,2024-070A,2024-07-11T13:56:11.058720,14.20490047,.0004605,98.7177,200.0977,183.6078,176.5066,0,U,59481,999,1291,.64504E-4,.95E-6,0
MICROORBITER-1,1998-067WF,2024-07-11T10:00:07.938720,15.72777106,.001104,51.6291,188.1764,43.9618,316.2257,0,U,59483,999,1428,.12026E-2,.16934E-2,0
STARLINK-31753,2024-071A,2024-07-11T05:03:35.924544,15.40704810,.0001331,42.9980,202.8039,274.1217,85.9488,0,U,59484,999,1501,.42219E-3,.17375E-3,0
STARLINK-31653,2024-071B,2024-07-11T05:51:46.715616,15.40701186,.0001349,42.9983,202.1873,281.5954,78.4751,0,U,59485,999,1502,.11732E-4,.187E-5,0
STARLINK-31733,2024-071C,2024-07-11T09:21:03.915360,15.40698992,.0001317,42.9989,201.5618,264.1169,95.9537,0,U,59486,999,1504,.36522E-4,.1222E-4,0
STARLINK-31657,2024-071D,2024-07-11T09:33:59.808960,15.40672571,.0001298,42.9995,201.6305,258.5259,101.5452,0,U,59487,999,1504,-.37321E-4,-.186E-4,0
STARLINK-31754,2024-071E,2024-07-11T10:06:01.960992,15.40703765,.0001333,42.9990,200.9276,259.7655,100.3051,0,U,59488,999,1505,.43873E-4,.153E-4,0
STARLINK-31638,2024-071F,2024-07-11T10:18:55.943424,15.40697504,.0001501,43.0015,201.0001,274.3235,85.7450,0,U,59489,999,1505,.36372E-4,.1216E-4,0
STARLINK-31670,2024-071G,2024-07-11T10:02:59.695008,15.40704517,.0001189,43.0002,201.7974,269.6212,90.4508,0,U,59490,999,1504,-.33467E-4,-.1701E-4,0
STARLINK-31712,2024-071H,2024-07-11T09:11:23.430048,15.40695863,.0001297,42.9989,201.5092,273.0226,87.0482,0,U,59491,999,1504,-.27455E-4,-.145E-4,0
STARLINK-31684,2024-071J,2024-07-11T09:56:21.226848,15.40700035,.0001318,42.9995,200.8774,273.5059,86.5647,0,U,59492,999,1505,.76203E-4,.2881E-4,0
STARLINK-31678,2024-071K,2024-07-11T09:53:08.531520,15.40687391,.0001233,42.9980,200.8637,313.8376,46.2379,0,U,59493,999,1387,.30556E-4,.973E-5,0
STARLINK-31744,2024-071L,2024-07-11T09:49:53.988960,15.40703913,.0000973,42.9977,200.8426,265.6994,94.3752,0,U,59494,999,1505,.74103E-4,.2794E-4,0
STARLINK-31719,2024-071M,2024-07-11T01:40:45.476256,15.40693651,.0001639,43.0014,203.4616,263.3165,96.7505,0,U,59495,999,1499,.48264E-5,-.102E-5,0
STARLINK-31728,2024-071N,2024-07-11T09:30:44.562240,15.40699441,.0001312,43.0005,201.6091,268.1776,91.8930,0,U,59496,999,1504,.53197E-4,.1919E-4,0
STARLINK-31720,2024-071P,2024-07-11T10:38:17.182752,15.40701748,.000235,43.0009,201.0983,268.2921,91.7667,0,U,59497,999,1505,.47173E-4,.1667E-4,0
STARLINK-31731,2024-071Q,2024-07-11T04:37:46.703424,15.40699112,.0001658,43.0008,202.6631,279.7703,80.2967,0,U,59498,999,1501,.31131E-4,.997E-5,0
STARLINK-31742,2024-071R,2024-07-11T10:41:30.736032,15.40706503,.0001486,42.9993,201.1172,276.0162,84.0525,0,U,59499,999,1505,.10857E-3,.4235E-4,0
STARLINK-31512,2024-071S,2024-07-11T01:05:16.541376,15.40694354,.0001447,43.0004,203.2708,276.2409,83.8282,0,U,59500,999,1499,.11847E-5,-.254E-5,0
STARLINK-31458,2024-071T,2024-07-11T04:34:33.387744,15.40702080,.0001387,42.9980,202.6452,274.9982,85.0717,0,U,59501,999,1501,.40321E-4,.1381E-4,0
STARLINK-31357,2024-071U,2024-07-11T05:48:33.312672,15.40715663,.0001378,42.9980,202.1681,271.2174,88.8525,0,U,59502,999,1502,.41804E-3,.17207E-3,0
STARLINK-31508,2024-071V,2024-07-11T10:22:09.630624,15.40696088,.0001209,42.9987,201.0117,265.5142,94.5577,0,U,59503,999,1505,.50725E-4,.1816E-4,0
STARLINK-31535,2024-071W,2024-07-11T09:39:42.266592,15.40714108,.0000882,42.9994,200.7839,259.7811,100.2946,0,U,59504,999,1505,-.17596E-4,-.1038E-4,0
STARLINK-31533,2024-071X,2024-07-11T10:15:42.698592,15.40695095,.0001225,43.0007,200.9761,287.6460,72.4263,0,U,59505,999,1505,.54654E-4,.198E-4,0
STARLINK-31524,2024-071Y,2024-07-11T09:59:34.310112,15.40710145,.0001457,42.9995,200.8947,262.7997,97.2694,0,U,59506,999,1505,.51713E-4,.1858E-4,0
CURTIS,1998-067WG,2024-07-11T08:35:13.311744,15.66742080,.0008728,51.6296,190.0393,42.6060,317.5611,0,U,59507,999,1426,.92595E-3,.100321E-2,0
KASHIWA,1998-067WH,2024-07-11T09:46:53.120928,15.76591473,.0011848,51.6268,187.3484,46.6059,313.5925,0,U,59508,999,1430,.14197E-2,.238177E-2,0
SUPERVIEW NEO-3 01,2024-072A,2024-07-11T13:54:37.965312,15.22125624,.0002801,97.4832,268.3592,88.5794,271.5763,0,U,59510,999,1329,.62387E-3,.14244E-3,0
STARLINK-31635,2024-073A,2024-07-11T07:28:03.418752,15.40695388,.0001361,43.0003,171.4590,262.5618,97.5084,0,U,59511,999,1310,.59844E-4,.2197E-4,0
STARLINK-31650,2024-073B,2024-07-11T08:13:01.447104,15.40715583,.0001564,42.9992,170.8255,267.7440,92.3237,0,U,59512,999,1311,.19498E-3,.7854E-4,0
STARLINK-31658,2024-073C,2024-07-11T08:22:31.203264,15.50599803,.0000772,43.0085,142.2959,323.5536,36.5272,0,U,59513,999,1343,.46759E-4,.2404E-4,0
STARLINK-31664,2024-073D,2024-07-11T08:03:21.043008,15.40699908,.0001512,42.9999,170.7738,281.2137,78.8549,0,U,59514,999,1311,.80443E-4,.3058E-4,0
STARLINK-31669,2024-073E,2024-07-11T07:18:22.993920,15.40698048,.0001142,42.9997,171.4059,278.6412,81.4315,0,U,59515,999,1310,.20485E-4,.552E-5,0
STARLINK-31671,2024-073F,2024-07-11T03:07:10.701408,15.40681474,.0001196,42.9987,171.8037,266.3046,93.7674,0,U,59516,999,1308,-.1475E-4,-.919E-5,0
STARLINK-31674,2024-073G,2024-07-11T07:08:42.322848,15.40702808,.0001273,42.9999,171.3530,264.1238,95.9473,0,U,59517,999,1310,-.78487E-5,-.631E-5,0
STARLINK-31672,2024-073H,2024-07-11T14:00:01.000224,15.80624835,.0010113,42.9925,152.8703,169.4954,358.3600,0,U,59518,999,601,.75434E-3,.151495E-2,0
STARLINK-31679,2024-073J,2024-07-11T06:46:06.702528,15.40714533,.0000771,42.9987,171.2284,256.4749,103.6022,0,U,59519,999,1310,-.62312E-4,-.2906E-4,0
STARLINK-31370,2024-073K,2024-07-11T06:17:06.204768,15.40689994,.0001271,43.0009,171.0750,263.5268,96.5443,0,U,59520,999,1310,-.43766E-5,-.486E-5,0
STARLINK-31404,2024-073L,2024-07-11T06:07:24.411360,15.40704535,.0001344,43.0004,171.0197,257.5963,102.4743,0,U,59521,999,1310,.52029E-4,.1871E-4,0
STARLINK-31453,2024-073M,2024-07-11T08:16:03.049536,15.40698870,.0001286,43.0029,169.9697,275.0478,85.0232,0,U,59522,999,1312,.4236E-4,.1466E-4,0
STARLINK-31476,2024-073N,2024-07-11T08:06:34.179840,15.40704601,.0001381,42.9999,170.7877,264.9508,95.1191,0,U,59523,999,1311,.93956E-4,.3624E-4,0
STARLINK-31376,2024-073P,2024-07-11T07:24:50.286240,15.40691467,.0001492,43.0002,171.4367,269.1821,90.8865,0,U,59524,999,1310,-.83781E-5,-.653E-5,0
STARLINK-31538,2024-073Q,2024-07-11T07:15:09.783648,15.40695502,.0001151,42.9989,171.3857,270.5438,89.5287,0,U,59525,999,1310,.61151E-5,-.48E-6,0
STARLINK-31564,2024-073R,2024-07-11T07:21:36.561024,15.40696091,.0001477,42.9995,171.4208,269.5790,90.4897,0,U,59526,999,1310,.41686E-4,.1438E-4,0
STARLINK-31452,2024-073S,2024-07-11T07:43:59.181600,15.40699329,.0001759,43.0022,170.6675,275.3505,84.7150,0,U,59527,999,1311,.46256E-4,.1629E-4,0
